{
  "norad_id": 68332,
  "name": "STARLINK-37205",
  "history": [
    {
      "epoch": "2026-03-31T16:00:01.999584Z",
      "apogee_km": 328.7128589357844,
      "perigee_km": 327.245560709076,
      "latitude_deg": -50.998304602256795,
      "longitude_deg": 70.52209130451061,
      "height_km": 346.3279263675446,
      "semi_major_axis_km": 6706.11620982243,
      "eccentricity": 0.0001094,
      "inclination_deg": 53.1594,
      "raan_deg": 252.6552,
      "arg_perigee_deg": 83.5801,
      "mean_anomaly_deg": 172.0491,
      "mean_motion_rev_day": 15.80869969
    }
  ]
}